NORAD_CAT_ID,OBJECT_NAME,OBJECT_TYPE,EPOCH,MEAN_MOTION,ECCENTRICITY,INCLINATION,RA_OF_ASC_NODE,ARG_OF_PERICENTER,MEAN_ANOMALY,BSTAR,MEAN_MOTION_DOT,MEAN_MOTION_DDOT,TLE_LINE0,TLE_LINE1,TLE_LINE2,SEMIMAJOR_AXIS,PERIOD,APOGEE,PERIGEE,DECAYED
55659.0,STARLINK-5477,PAYLOAD,2024-06-22 11:58:41,14.98326296,0.0002977,70.001,300.9207,267.2606,92.8213,8.1295e-06,4e-08,0.0,0 STARLINK-5477,1 55659U 23021AH  24174.49908715  .00000004  00000-0  81295-5 0  9993,2 55659  70.0010 300.9207 0002977 267.2606  92.8213 14.98326296 75338,6950.204,96.107,574.138,570.0,0.0
55659.0,STARLINK-5477,PAYLOAD,2024-06-22 18:23:13,14.98325437,0.0002875,70.0012,300.2472,260.3173,99.7662,5.1407e-06,-3.2e-07,0.0,0 STARLINK-5477,1 55659U 23021AH  24174.76612800 -.00000032  00000-0  51407-5 0  9994,2 55659  70.0012 300.2472 0002875 260.3173  99.7662 14.98325437 75674,6950.207,96.107,574.07,570.074,0.0
55659.0,STARLINK-5477,PAYLOAD,2024-06-23 12:00:41,14.98339196,0.0003163,70.0008,298.3956,263.408,96.6719,1.5217e-05,8.9e-07,0.0,0 STARLINK-5477,1 55659U 23021AH  24175.50047755  .00000089  00000-0  15217-4 0  9997,2 55659  70.0008 298.3956 0003163 263.4080  96.6719 14.98339196 75480,6950.164,96.106,574.228,569.831,0.0
55659.0,STARLINK-5477,PAYLOAD,2024-06-23 18:25:13,14.98342255,0.0003141,70.0008,297.7224,263.1995,96.8807,5.1229e-05,5.18e-06,0.0,0 STARLINK-5477,1 55659U 23021AH  24175.76751303  .00000518  00000-0  51229-4 0  9996,2 55659  70.0008 297.7224 0003141 263.1995  96.8807 14.98342255 75827,6950.155,96.106,574.203,569.837,0.0
55659.0,STARLINK-5477,PAYLOAD,2024-06-24 12:02:42,14.98330736,0.0003188,70.0007,295.8705,263.0763,97.0033,6.0552e-05,6.3e-06,0.0,0 STARLINK-5477,1 55659U 23021AH  24176.50187773  .00000630  00000-0  60552-4 0  9997,2 55659  70.0007 295.8705 0003188 263.0763  97.0033 14.98330736 75636,6950.191,96.107,574.271,569.84,0.0
55659.0,STARLINK-5477,PAYLOAD,2024-06-24 18:27:14,14.98333529,0.0003161,70.0008,295.1973,263.0711,97.0089,8.657e-05,9.4e-06,0.0,0 STARLINK-5477,1 55659U 23021AH  24176.76891487  .00000940  00000-0  86570-4 0  9991,2 55659  70.0008 295.1973 0003161 263.0711  97.0089 14.98333529 75972,6950.182,96.107,574.244,569.85,0.0
55659.0,STARLINK-5477,PAYLOAD,2024-06-25 12:04:43,14.98331278,0.000305,70.0013,293.3463,259.136,100.9456,-7.9669e-05,-1.043e-05,0.0,0 STARLINK-5477,1 55659U 23021AH  24177.50327981 -.00001043  00000-0 -79669-4 0  9995,2 55659  70.0013 293.3463 0003050 259.1360 100.9456 14.98331278 75785,6950.189,96.107,574.174,569.934,0.0
55659.0,STARLINK-5477,PAYLOAD,2024-06-25 13:40:51,14.98331229,0.0003046,70.0013,293.1779,258.3413,101.7404,-7.8041e-05,-1.024e-05,0.0,0 STARLINK-5477,1 55659U 23021AH  24177.57003965 -.00001024  00000-0 -78041-4 0  9997,2 55659  70.0013 293.1779 0003046 258.3413 101.7404 14.98331229 76091,6950.189,96.107,574.171,569.937,0.0
55659.0,STARLINK-5477,PAYLOAD,2024-06-25 16:53:07,14.98330502,0.0003049,70.0013,292.8414,259.4444,100.6372,-8.4386e-05,-1.1e-05,0.0,0 STARLINK-5477,1 55659U 23021AH  24177.70356023 -.00001100  00000-0 -84386-4 0  9992,2 55659  70.0013 292.8414 0003049 259.4444 100.6372 14.98330502 76110,6950.191,96.107,574.175,569.937,0.0
55659.0,STARLINK-5477,PAYLOAD,2024-06-26 12:06:44,14.98329264,0.0003021,70.0012,290.8213,259.0784,101.0036,1.8227e-06,-7.1e-07,0.0,0 STARLINK-5477,1 55659U 23021AH  24178.50467858 -.00000071  00000-0  18227-5 0  9997,2 55659  70.0012 290.8213 0003021 259.0784 101.0036 14.98329264 75931,6950.195,96.107,574.16,569.961,0.0
55659.0,STARLINK-5477,PAYLOAD,2024-06-27 13:44:53,14.98330351,0.0003255,70.0004,288.1266,270.5008,89.5778,8.7275e-05,9.48e-06,0.0,0 STARLINK-5477,1 55659U 23021AH  24179.57283671  .00000948  00000-0  87275-4 0  9994,2 55659  70.0004 288.1266 0003255 270.5008  89.5778 14.98330351 76096,6950.192,96.107,574.319,569.795,0.0
55659.0,STARLINK-5477,PAYLOAD,2024-06-27 16:57:09,14.98331156,0.0003263,70.0005,287.7901,270.5395,89.539,9.2028e-05,1.005e-05,0.0,0 STARLINK-5477,1 55659U 23021AH  24179.70635616  .00001005  00000-0  92028-4 0  9996,2 55659  70.0005 287.7901 0003263 270.5395  89.5390 14.98331156 76416,6950.189,96.107,574.322,569.786,0.0
55659.0,STARLINK-5477,PAYLOAD,2024-06-28 13:46:53,14.98329146,0.0003253,70.0004,285.6011,269.5842,90.4945,0.00025541,2.956e-05,0.0,0 STARLINK-5477,1 55659U 23021AH  24180.57423361  .00002956  00000-0  25541-3 0  9996,2 55659  70.0004 285.6011 0003253 269.5842  90.4945 14.98329146 76242,6950.196,96.107,574.321,569.8,0.0
55659.0,STARLINK-5477,PAYLOAD,2024-06-28 16:59:09,14.98338666,0.0003178,70.0002,285.2645,266.036,94.0436,0.00019291,2.21e-05,0.0,0 STARLINK-5477,1 55659U 23021AH  24180.70774925  .00002210  00000-0  19291-3 0  9994,2 55659  70.0002 285.2645 0003178 266.0360  94.0436 14.98338666 76569,6950.166,96.106,574.24,569.822,0.0
55659.0,STARLINK-5477,PAYLOAD,2024-06-29 13:48:55,14.9832813,0.0003416,69.9998,283.0777,269.6354,90.4414,-1.0665e-05,-2.2e-06,0.0,0 STARLINK-5477,1 55659U 23021AH  24181.57564140 -.00000220  00000-0 -10665-4 0  9994,2 55659  69.9998 283.0777 0003416 269.6354  90.4414 14.98328130 76391,6950.199,96.107,574.438,569.689,0.0
55659.0,STARLINK-5477,PAYLOAD,2024-06-29 17:01:11,14.98329935,0.0003191,70.0002,282.7404,270.0348,90.0445,1.0581e-05,3.3e-07,0.0,0 STARLINK-5477,1 55659U 23021AH  24181.70916023  .00000033  00000-0  10581-4 0  9997,2 55659  70.0002 282.7404 0003191 270.0348  90.0445 14.98329935 76712,6950.193,96.107,574.276,569.84,0.0
55659.0,STARLINK-5477,PAYLOAD,2024-06-30 13:50:55,14.98335607,0.0003266,69.9998,280.5525,268.1769,91.9016,3.1551e-05,2.83e-06,0.0,0 STARLINK-5477,1 55659U 23021AH  24182.57703681  .00000283  00000-0  31551-4 0  9994,2 55659  69.9998 280.5525 0003266 268.1769  91.9016 14.98335607 76842,6950.176,96.107,574.31,569.771,0.0
55659.0,STARLINK-5477,PAYLOAD,2024-06-30 15:27:03,14.98338254,0.0003122,69.9999,280.3844,266.1675,93.9127,6.598e-05,6.94e-06,0.0,0 STARLINK-5477,1 55659U 23021AH  24182.64379412  .00000694  00000-0  65980-4 0  9992,2 55659  69.9999 280.3844 0003122 266.1675  93.9127 14.98338254 76554,6950.167,96.106,574.202,569.863,0.0
55659.0,STARLINK-5477,PAYLOAD,2024-07-01 05:52:16,14.98328778,0.000301,70.0001,278.8694,269.0313,91.0501,0.00011487,1.278e-05,0.0,0 STARLINK-5477,1 55659U 23021AH  24183.24463921  .00001278  00000-0  11487-3 0  9999,2 55659  70.0001 278.8694 0003010 269.0313  91.0501 14.98328778 76648,6950.197,96.107,574.154,569.97,0.0
55659.0,STARLINK-5477,PAYLOAD,2024-07-01 13:52:57,14.98330636,0.0003018,70.0001,278.0278,268.4294,91.652,0.00012584,1.409e-05,0.0,0 STARLINK-5477,1 55659U 23021AH  24183.57843813  .00001409  00000-0  12584-3 0  9992,2 55659  70.0001 278.0278 0003018 268.4294  91.6520 14.98330636 76998,6950.191,96.107,574.153,569.958,0.0
55659.0,STARLINK-5477,PAYLOAD,2024-07-01 17:05:12,14.98333321,0.0003007,70.0001,277.6911,268.8123,91.2692,0.00015384,1.743e-05,0.0,0 STARLINK-5477,1 55659U 23021AH  24183.71195591  .00001743  00000-0  15384-3 0  9993,2 55659  70.0001 277.6911 0003007 268.8123  91.2692 14.98333321 77014,6950.183,96.107,574.138,569.958,0.0
55659.0,STARLINK-5477,PAYLOAD,2024-07-02 05:54:18,14.98320184,0.0003327,69.9999,276.3443,266.8435,93.2343,-6.1451e-05,-8.26e-06,0.0,0 STARLINK-5477,1 55659U 23021AH  24184.24604853 -.00000826  00000-0 -61451-4 0  9998,2 55659  69.9999 276.3443 0003327 266.8435  93.2343 14.98320184 76794,6950.223,96.108,574.401,569.776,0.0
55659.0,STARLINK-5477,PAYLOAD,2024-07-02 12:18:50,14.98327379,0.0003166,70.0003,275.6718,268.8865,91.1932,3.7222e-05,3.51e-06,0.0,0 STARLINK-5477,1 55659U 23021AH  24184.51308222  .00000351  00000-0  37222-4 0  9999,2 55659  70.0003 275.6718 0003166 268.8865  91.1932 14.98327379 76839,6950.201,96.107,574.266,569.866,0.0
55659.0,STARLINK-5477,PAYLOAD,2024-07-02 13:54:58,14.98326807,0.0003081,70.0004,275.5035,267.277,92.8036,1.9219e-05,1.36e-06,0.0,0 STARLINK-5477,1 55659U 23021AH  24184.57984298  .00000136  00000-0  19219-4 0  9995,2 55659  70.0004 275.5035 0003081 267.2770  92.8036 14.98326807 77148,6950.203,96.107,574.209,569.926,0.0
55659.0,STARLINK-5477,PAYLOAD,2024-07-02 15:31:06,14.983265,0.0003022,70.0004,275.3352,266.0978,93.9836,2.1512e-05,1.64e-06,0.0,0 STARLINK-5477,1 55659U 23021AH  24184.64660315  .00000164  00000-0  21512-4 0  9994,2 55659  70.0004 275.3352 0003022 266.0978  93.9836 14.98326500 77151,6950.204,96.107,574.169,569.968,0.0
55659.0,STARLINK-5477,PAYLOAD,2024-07-03 12:20:51,14.98330886,0.0003055,69.9999,273.1459,267.2499,92.831,4.3016e-05,4.2e-06,0.0,0 STARLINK-5477,1 55659U 23021AH  24185.51448008  .00000420  00000-0  43016-4 0  9992,2 55659  69.9999 273.1459 0003055 267.2499  92.8310 14.98330886 76989,6950.19,96.107,574.178,569.932,0.0
55659.0,STARLINK-5477,PAYLOAD,2024-07-03 15:33:07,14.98330288,0.0003349,70.0001,272.8099,271.0102,89.0673,2.8621e-05,2.48e-06,0.0,0 STARLINK-5477,1 55659U 23021AH  24185.64800097  .00000248  00000-0  28621-4 0  9999,2 55659  70.0001 272.8099 0003349 271.0102  89.0673 14.98330288 77305,6950.192,96.107,574.385,569.729,0.0
55659.0,STARLINK-5477,PAYLOAD,2024-07-04 12:22:51,14.98332605,0.0003264,69.9994,270.6206,270.4056,89.6729,0.00011268,1.252e-05,0.0,0 STARLINK-5477,1 55659U 23021AH  24186.51587761  .00001252  00000-0  11268-3 0  9990,2 55659  69.9994 270.6206 0003264 270.4056  89.6729 14.98332605 77130,6950.185,96.107,574.318,569.781,0.0
55659.0,STARLINK-5477,PAYLOAD,2024-07-04 13:58:59,14.98333283,0.0003256,69.9994,270.4522,270.3532,89.7254,0.00011891,1.326e-05,0.0,0 STARLINK-5477,1 55659U 23021AH  24186.58263699  .00001326  00000-0  11891-3 0  9992,2 55659  69.9994 270.4522 0003256 270.3532  89.7254 14.98333283 77449,6950.183,96.107,574.311,569.785,0.0
55659.0,STARLINK-5477,PAYLOAD,2024-07-04 15:35:07,14.98334449,0.0003254,69.9995,270.2839,270.3363,89.7423,0.00013059,1.466e-05,0.0,0 STARLINK-5477,1 55659U 23021AH  24186.64939592  .00001466  00000-0  13059-3 0  9994,2 55659  69.9995 270.2839 0003254 270.3363  89.7423 14.98334449 77453,6950.179,96.107,574.306,569.783,0.0
